LUCH-5X (OLYMP-K 2)     
1 55841U 23031A   26087.64051075  .00000014  00000+0  00000+0 0  9996
2 55841   0.0319  81.8631 0001460 142.0985 254.6522  1.00270242 11135
